ONEWEB-0056             
1 45159U 20008AE  25350.26376230 -.00000709  00000+0 -20667-2 0  9998
2 45159  87.8807  72.7272 0001548 110.9108 249.2185 13.10372551284226
ONEWEB-0057             
1 45160U 20008AF  25350.27137172 -.00000420  00000+0 -12385-2 0  9999
2 45160  87.8813  72.7391 0001822 110.8105 249.3218 13.10374642284397
ONEWEB-0058             
1 45161U 20008AG  25350.25809228 -.00000575  00000+0 -16825-2 0  9990
2 45161  87.8803  72.7523 0001668  95.5065 264.6253 13.10370448284463
ONEWEB-0059             
1 45162U 20008AH  25350.25464120  .00000208  00000+0  56081-3 0  9999
2 45162  87.8806  72.7532 0001732 102.6458 257.4863 13.10367373284364
ONEWEB-0062             
1 45163U 20008AJ  25350.28036310 -.00000054  00000+0 -19066-3 0  9992
2 45163  87.8813  72.7239 0001596  88.4198 271.7112 13.10376660284238
ONEWEB-0065             
1 45164U 20008AK  25350.23461662  .00000498  00000+0  13890-2 0  9998
2 45164  87.8804  72.7484 0001751 117.5210 242.6095 13.10371616283921
ONEWEB-0066             
1 45424U 20020A   25350.26334812  .00000669  00000+0  18509-2 0  9992
2 45424  87.8863  57.4889 0002049 103.8657 256.2700 13.11414494278705
ONEWEB-0067             
1 45425U 20020B   25350.22447018 -.00000414  00000+0 -12048-2 0  9994
2 45425  87.8867  57.4009 0001860 105.7734 254.3599 13.11418190278758
